OBJECT_NAME,OBJECT_ID,EPOCH,MEAN_MOTION,ECCENTRICITY,INCLINATION,RA_OF_ASC_NODE,ARG_OF_PERICENTER,MEAN_ANOMALY,EPHEMERIS_TYPE,CLASSIFICATION_TYPE,NORAD_CAT_ID,ELEMENT_SET_NO,REV_AT_EPOCH,BSTAR,MEAN_MOTION_DOT,MEAN_MOTION_DDOT
STARLINK-36226,2025-304T,2026-06-16T14:07:06.497760,14.98338097,.00034641,70.0022,285.3034,269.4745,90.6017,0,U,67209,999,2869,.28909708E-3,.3359E-4,0
STARLINK-36173,2025-304U,2026-06-16T13:19:01.366752,14.98338385,.00029523,70.0017,285.1827,271.0911,88.9910,0,U,67210,999,2869,.26718711E-3,.3097E-4,0
STARLINK-36280,2025-304V,2026-06-16T14:43:08.215392,14.98336490,.00030049,70.0013,284.9875,268.2880,91.7935,0,U,67211,999,2870,.31502491E-3,.3668E-4,0
STARLINK-36213,2025-304W,2026-06-16T14:31:06.802176,14.98333891,.00033417,70.0020,284.9551,267.1357,92.9420,0,U,67212,999,2870,.16309037E-3,.1854E-4,0
STARLINK-36199,2025-304X,2026-06-16T14:13:04.836576,14.98335626,.00035586,70.0021,284.9123,268.2678,91.8074,0,U,67213,999,2870,.26027671E-3,.3014E-4,0
STARLINK-36203,2025-304Y,2026-06-16T14:01:20.494272,14.98323175,.00030721,70.0015,285.2837,269.2403,90.8404,0,U,67214,999,2869,.41189437E-3,.4824E-4,0
STARLINK-36221,2025-304Z,2026-06-16T13:49:18.846048,14.98336943,.00033036,70.0012,285.2536,269.0735,91.0045,0,U,67215,999,2869,.25369547E-3,.2936E-4,0
STARLINK-36212,2025-304AA,2026-06-16T13:37:17.406048,14.98336918,.00032424,70.0020,285.2236,268.3713,91.7074,0,U,67216,999,2869,.22776338E-3,.2626E-4,0
STARLINK-36216,2025-304AB,2026-06-16T13:25:16.103424,14.98337895,.00031537,70.0021,285.1942,270.6241,89.4557,0,U,67217,999,2868,.21916234E-3,.2524E-4,0
STARLINK-36211,2025-304AC,2026-06-16T13:13:14.896704,14.98336227,.0003285,70.0016,285.1639,268.5087,91.5696,0,U,67218,999,2866,.20051307E-3,.2301E-4,0
STARLINK-36490,2026-002A,2026-06-16T04:05:28.811904,15.27594085,.00008788,43.0061,128.8103,278.7008,81.3744,0,U,67305,999,2620,.6875622E-3,.18714E-3,0
STARLINK-36488,2026-002B,2026-06-14T15:28:38.178048,15.27602123,.0002729,43.0051,138.0060,278.7702,81.2840,0,U,67306,999,2590,.58156655E-3,.15787E-3,0
STARLINK-36481,2026-002C,2026-06-16T04:48:02.359584,15.27583558,.00016643,42.9961,129.0364,263.5029,96.5633,0,U,67307,999,2614,.51069792E-3,.13819E-3,0
STARLINK-36449,2026-002D,2026-06-16T14:01:52.328352,15.27590766,.00020882,43.0004,126.7589,271.3129,88.7483,0,U,67308,999,2626,.60957123E-3,.16555E-3,0
STARLINK-36482,2026-002E,2026-06-16T13:56:20.683680,15.27604443,.00020322,42.9951,126.7254,279.7075,80.3547,0,U,67309,999,2620,.83588596E-3,.22829E-3,0
STARLINK-36491,2026-002F,2026-06-16T14:27:46.374048,15.27590415,.00029572,43.0056,126.9029,265.4924,94.5590,0,U,67310,999,2620,.61641771E-3,.16745E-3,0
STARLINK-36495,2026-002G,2026-06-16T13:41:30.922656,15.27598260,.00025929,42.9966,126.6467,279.2848,80.7710,0,U,67311,999,2636,.53846948E-3,.14594E-3,0
STARLINK-36485,2026-002H,2026-06-16T03:56:13.780896,15.27585227,.00021452,43.0035,128.7571,274.1210,85.9396,0,U,67312,999,2614,.60757521E-3,.16497E-3,0
STARLINK-36445,2026-002J,2026-06-16T14:38:53.008800,15.27592091,.00019215,43.0064,126.9555,266.5761,93.4870,0,U,67313,999,2636,.45273553E-3,.12221E-3,0
STARLINK-36476,2026-002K,2026-06-16T04:42:29.176992,15.27587049,.0003115,43.0037,129.0001,289.1385,70.9129,0,U,67314,999,2613,.66773556E-3,.18163E-3,0
STARLINK-36463,2026-002L,2026-06-16T04:12:52.884576,15.27597582,.00042291,42.9971,128.8403,274.8209,85.2160,0,U,67315,999,2620,.84726067E-3,.23142E-3,0
STARLINK-36461,2026-002M,2026-06-16T04:07:19.983648,15.27587074,.00010699,42.9997,128.8154,276.0489,84.0240,0,U,67316,999,2630,.58811566E-3,.1596E-3,0
STARLINK-36450,2026-002N,2026-06-16T14:40:44.078592,15.27594981,.00008239,43.0023,126.9624,267.3894,92.6863,0,U,67317,999,2636,.45558383E-3,.12301E-3,0
STARLINK-36498,2026-002P,2026-06-16T04:49:53.337792,15.27584033,.00022558,42.9989,129.0448,266.1013,93.9581,0,U,67318,999,2620,.36632093E-3,.9833E-4,0
STARLINK-36470,2026-002Q,2026-06-16T14:20:22.875072,15.27595607,.00026286,42.9916,126.8598,259.4214,100.6342,0,U,67319,999,2626,.53368022E-3,.1446E-3,0
STARLINK-36500,2026-002R,2026-06-16T14:46:16.505184,15.27605202,.0002895,43.0037,126.9918,271.3360,88.7161,0,U,67320,999,2626,.49771752E-3,.1347E-3,0
STARLINK-36462,2026-002S,2026-06-16T14:29:37.543200,15.27594375,.00018197,43.0016,126.9073,267.8956,92.1688,0,U,67321,999,2620,.61786757E-3,.16787E-3,0
STARLINK-36434,2026-002T,2026-06-16T14:35:10.840704,15.27596037,.00014777,43.0060,126.9346,271.5130,88.5553,0,U,67322,999,2620,.55926632E-3,.15167E-3,0
STARLINK-36497,2026-002U,2026-06-16T14:03:43.284960,15.27583174,.00009755,43.0006,126.7635,253.3857,106.6888,0,U,67323,999,2626,.27304234E-3,.726E-4,0
STARLINK-36471,2026-002V,2026-06-16T13:43:21.557856,15.27605108,.00029835,42.9914,126.6501,283.4280,76.6239,0,U,67324,999,2620,.61007396E-3,.16578E-3,0
