[
  {
    "name": "STARLINK-36226",
    "noradId": "67209",
    "line1": "1 67209U 25304T   26167.58826965  .00003359  00000+0  28910-3 0  9991",
    "line2": "2 67209  70.0022 285.3034 0003464 269.4745  90.6017 14.98338097 28696"
  },
  {
    "name": "STARLINK-36173",
    "noradId": "67210",
    "line1": "1 67210U 25304U   26167.55487693  .00003097  00000+0  26719-3 0  9995",
    "line2": "2 67210  70.0017 285.1827 0002952 271.0911  88.9910 14.98338385 28697"
  },
  {
    "name": "STARLINK-36280",
    "noradId": "67211",
    "line1": "1 67211U 25304V   26167.61328953  .00003668  00000+0  31502-3 0  9996",
    "line2": "2 67211  70.0013 284.9875 0003004 268.2880  91.7935 14.98336490 28702"
  },
  {
    "name": "STARLINK-36213",
    "noradId": "67212",
    "line1": "1 67212U 25304W   26167.60493984  .00001854  00000+0  16309-3 0  9996",
    "line2": "2 67212  70.0020 284.9551 0003341 267.1357  92.9420 14.98333891 28707"
  },
  {
    "name": "STARLINK-36199",
    "noradId": "67213",
    "line1": "1 67213U 25304X   26167.59241709  .00003014  00000+0  26028-3 0  9990",
    "line2": "2 67213  70.0021 284.9123 0003558 268.2678  91.8074 14.98335626 28703"
  },
  {
    "name": "STARLINK-36203",
    "noradId": "67214",
    "line1": "1 67214U 25304Y   26167.58426498  .00004824  00000+0  41189-3 0  9995",
    "line2": "2 67214  70.0015 285.2837 0003072 269.2403  90.8404 14.98323175 28691"
  },
  {
    "name": "STARLINK-36221",
    "noradId": "67215",
    "line1": "1 67215U 25304Z   26167.57591257  .00002936  00000+0  25370-3 0  9997",
    "line2": "2 67215  70.0012 285.2536 0003303 269.0735  91.0045 14.98336943 28699"
  },
  {
    "name": "STARLINK-36212",
    "noradId": "67216",
    "line1": "1 67216U 25304AA  26167.56756257  .00002626  00000+0  22776-3 0  9993",
    "line2": "2 67216  70.0020 285.2236 0003242 268.3713  91.7074 14.98336918 28697"
  },
  {
    "name": "STARLINK-36216",
    "noradId": "67217",
    "line1": "1 67217U 25304AB  26167.55921416  .00002524  00000+0  21916-3 0  9996",
    "line2": "2 67217  70.0021 285.1942 0003153 270.6241  89.4557 14.98337895 28689"
  },
  {
    "name": "STARLINK-36211",
    "noradId": "67218",
    "line1": "1 67218U 25304AC  26167.55086686  .00002301  00000+0  20051-3 0  9990",
    "line2": "2 67218  70.0016 285.1639 0003285 268.5087  91.5696 14.98336227 28661"
  },
  {
    "name": "STARLINK-36490",
    "noradId": "67305",
    "line1": "1 67305U 26002A   26167.17047236  .00018714  00000+0  68756-3 0  9998",
    "line2": "2 67305  43.0061 128.8103 0000878 278.7008  81.3744 15.27594085 26208"
  },
  {
    "name": "STARLINK-36488",
    "noradId": "67306",
    "line1": "1 67306U 26002B   26165.64488632  .00015787  00000+0  58157-3 0  9999",
    "line2": "2 67306  43.0051 138.0060 0002729 278.7702  81.2840 15.27602123 25906"
  },
  {
    "name": "STARLINK-36481",
    "noradId": "67307",
    "line1": "1 67307U 26002C   26167.20002731  .00013819  00000+0  51070-3 0  9997",
    "line2": "2 67307  42.9961 129.0364 0001664 263.5029  96.5633 15.27583558 26149"
  },
  {
    "name": "STARLINK-36449",
    "noradId": "67308",
    "line1": "1 67308U 26002D   26167.58463343  .00016555  00000+0  60957-3 0  9993",
    "line2": "2 67308  43.0004 126.7589 0002088 271.3129  88.7483 15.27590766 26260"
  },
  {
    "name": "STARLINK-36482",
    "noradId": "67309",
    "line1": "1 67309U 26002E   26167.58079495  .00022829  00000+0  83589-3 0  9992",
    "line2": "2 67309  42.9951 126.7254 0002032 279.7075  80.3547 15.27604443 26201"
  },
  {
    "name": "STARLINK-36491",
    "noradId": "67310",
    "line1": "1 67310U 26002F   26167.60262007  .00016745  00000+0  61642-3 0  9996",
    "line2": "2 67310  43.0056 126.9029 0002957 265.4924  94.5590 15.27590415 26202"
  },
  {
    "name": "STARLINK-36495",
    "noradId": "67311",
    "line1": "1 67311U 26002G   26167.57049679  .00014594  00000+0  53847-3 0  9999",
    "line2": "2 67311  42.9966 126.6467 0002592 279.2848  80.7710 15.27598260 26361"
  },
  {
    "name": "STARLINK-36485",
    "noradId": "67312",
    "line1": "1 67312U 26002H   26167.16404839  .00016497  00000+0  60758-3 0  9991",
    "line2": "2 67312  43.0035 128.7571 0002145 274.1210  85.9396 15.27585227 26143"
  },
  {
    "name": "STARLINK-36445",
    "noradId": "67313",
    "line1": "1 67313U 26002J   26167.61033575  .00012221  00000+0  45274-3 0  9994",
    "line2": "2 67313  43.0064 126.9555 0001921 266.5761  93.4870 15.27592091 26367"
  },
  {
    "name": "STARLINK-36476",
    "noradId": "67314",
    "line1": "1 67314U 26002K   26167.19617103  .00018163  00000+0  66774-3 0  9992",
    "line2": "2 67314  43.0037 129.0001 0003115 289.1385  70.9129 15.27587049 26137"
  },
  {
    "name": "STARLINK-36463",
    "noradId": "67315",
    "line1": "1 67315U 26002L   26167.17561209  .00023142  00000+0  84726-3 0  9996",
    "line2": "2 67315  42.9971 128.8403 0004229 274.8209  85.2160 15.27597582 26204"
  },
  {
    "name": "STARLINK-36461",
    "noradId": "67316",
    "line1": "1 67316U 26002M   26167.17175907  .00015960  00000+0  58812-3 0  9999",
    "line2": "2 67316  42.9997 128.8154 0001069 276.0489  84.0240 15.27587074 26301"
  },
  {
    "name": "STARLINK-36450",
    "noradId": "67317",
    "line1": "1 67317U 26002N   26167.61162128  .00012301  00000+0  45558-3 0  9999",
    "line2": "2 67317  43.0023 126.9624 0000823 267.3894  92.6863 15.27594981 26362"
  },
  {
    "name": "STARLINK-36498",
    "noradId": "67318",
    "line1": "1 67318U 26002P   26167.20131178  .00009833  00000+0  36632-3 0  9995",
    "line2": "2 67318  42.9989 129.0448 0002255 266.1013  93.9581 15.27584033 26202"
  },
  {
    "name": "STARLINK-36470",
    "noradId": "67319",
    "line1": "1 67319U 26002Q   26167.59748698  .00014460  00000+0  53368-3 0  9996",
    "line2": "2 67319  42.9916 126.8598 0002628 259.4214 100.6342 15.27595607 26262"
  },
  {
    "name": "STARLINK-36500",
    "noradId": "67320",
    "line1": "1 67320U 26002R   26167.61546881  .00013470  00000+0  49772-3 0  9995",
    "line2": "2 67320  43.0037 126.9918 0002895 271.3360  88.7161 15.27605202 26266"
  },
  {
    "name": "STARLINK-36462",
    "noradId": "67321",
    "line1": "1 67321U 26002S   26167.60390675  .00016787  00000+0  61787-3 0  9997",
    "line2": "2 67321  43.0016 126.9073 0001819 267.8956  92.1688 15.27594375 26207"
  },
  {
    "name": "STARLINK-36434",
    "noradId": "67322",
    "line1": "1 67322U 26002T   26167.60776436  .00015167  00000+0  55927-3 0  9991",
    "line2": "2 67322  43.0060 126.9346 0001477 271.5130  88.5553 15.27596037 26203"
  },
  {
    "name": "STARLINK-36497",
    "noradId": "67323",
    "line1": "1 67323U 26002U   26167.58591765  .00007260  00000+0  27304-3 0  9992",
    "line2": "2 67323  43.0006 126.7635 0000975 253.3857 106.6888 15.27583174 26266"
  },
  {
    "name": "STARLINK-36471",
    "noradId": "67324",
    "line1": "1 67324U 26002V   26167.57177729  .00016578  00000+0  61007-3 0  9992",
    "line2": "2 67324  42.9914 126.6501 0002983 283.4280  76.6239 15.27605108 26201"
  }
]